STARLINK-1088_new
1 14966C 20001BE  21326.10577021  .00003014  00000-0  20200-3 0  3268
2 14966  53.0515 148.2675 0001821  92.5776 288.6171 15.06381952    15
STARLINK-1088_old
1 24966C 20001BE  21325.09655022  .00002907  00000-0  19483-3 0  3253
2 24966  53.0513 152.7982 0001807  92.3660 212.8234 15.06379541    18
